[{"OBJECT_NAME":"OBJECT G","OBJECT_ID":"2025-274G","EPOCH":"2026-03-09T18:19:14.904480","MEAN_MOTION":14.92900769,"ECCENTRICITY":0.00131843,"INCLINATION":97.7442,"RA_OF_ASC_NODE":359.5118,"ARG_OF_PERICENTER":335.9789,"MEAN_ANOMALY":24.0813,"EPHEMERIS_TYPE":0,"CLASSIFICATION_TYPE":"U","NORAD_CAT_ID":66656,"ELEMENT_SET_NO":999,"REV_AT_EPOCH":1538,"BSTAR":0.00037270801,"MEAN_MOTION_DOT":3.814e-5,"MEAN_MOTION_DDOT":0},{"OBJECT_NAME":"CZ-6A DEB","OBJECT_ID":"2022-151WD","EPOCH":"2026-03-09T18:15:50.585760","MEAN_MOTION":14.95909888,"ECCENTRICITY":0.00406186,"INCLINATION":98.6454,"RA_OF_ASC_NODE":143.7847,"ARG_OF_PERICENTER":193.5421,"MEAN_ANOMALY":166.4711,"EPHEMERIS_TYPE":0,"CLASSIFICATION_TYPE":"U","NORAD_CAT_ID":55212,"ELEMENT_SET_NO":999,"REV_AT_EPOCH":17107,"BSTAR":0.0046813987,"MEAN_MOTION_DOT":0.00053565,"MEAN_MOTION_DDOT":0}]
